NORAD_CAT_ID,OBJECT_NAME,OBJECT_TYPE,EPOCH,MEAN_MOTION,ECCENTRICITY,INCLINATION,RA_OF_ASC_NODE,ARG_OF_PERICENTER,MEAN_ANOMALY,BSTAR,MEAN_MOTION_DOT,MEAN_MOTION_DDOT,TLE_LINE0,TLE_LINE1,TLE_LINE2,SEMIMAJOR_AXIS,PERIOD,APOGEE,PERIGEE,DECAYED
55955.0,STARLINK-5878,PAYLOAD,2024-07-18 14:16:51,14.98326088,0.0003137,70.0012,335.0236,271.8725,88.2075,2.4753e-05,2.02e-06,0.0,0 STARLINK-5878,1 55955U 23037AT  24200.59504322  .00000202  00000-0  24753-4 0  9991,2 55955  70.0012 335.0236 0003137 271.8725  88.2075 14.98326088 74739,6950.205,96.107,574.25,569.89,0.0
55955.0,STARLINK-5878,PAYLOAD,2024-07-18 19:05:15,14.98337571,0.0003074,70.0013,334.5183,271.5842,88.4964,3.7438e-05,3.54e-06,0.0,0 STARLINK-5878,1 55955U 23037AT  24200.79531529  .00000354  00000-0  37438-4 0  9994,2 55955  70.0013 334.5183 0003074 271.5842  88.4964 14.98337571 75102,6950.169,96.107,574.171,569.898,0.0
55955.0,STARLINK-5878,PAYLOAD,2024-07-19 12:42:44,14.98336092,0.0002918,70.0016,332.6669,274.1079,85.9746,-4.6516e-05,-6.48e-06,0.0,0 STARLINK-5878,1 55955U 23037AT  24201.52967868 -.00000648  00000-0 -46516-4 0  9990,2 55955  70.0016 332.6669 0002918 274.1079  85.9746 14.98336092 75219,6950.174,96.107,574.067,570.011,0.0
55955.0,STARLINK-5878,PAYLOAD,2024-07-19 14:18:52,14.9832763,0.0002924,70.0017,332.4986,274.9143,85.1682,0.00011175,1.241e-05,0.0,0 STARLINK-5878,1 55955U 23037AT  24201.59643930  .00001241  00000-0  11175-3 0  9998,2 55955  70.0017 332.4986 0002924 274.9143  85.1682 14.98327630 74888,6950.2,96.107,574.097,570.033,0.0
55955.0,STARLINK-5878,PAYLOAD,2024-07-19 19:07:15,14.98353768,0.0002599,70.0021,331.9952,265.5022,94.5841,-0.00016328,-2.042e-05,0.0,0 STARLINK-5878,1 55955U 23037AT  24201.79670808 -.00002042  00000-0 -16328-3 0  9991,2 55955  70.0021 331.9952 0002599 265.5022  94.5841 14.98353768 75254,6950.119,96.105,573.791,570.178,0.0
55955.0,STARLINK-5878,PAYLOAD,2024-07-20 12:44:45,14.9832873,0.0002815,70.0024,330.144,267.544,92.5396,1.4481e-05,8e-07,0.0,0 STARLINK-5878,1 55955U 23037AT  24202.53107953  .00000080  00000-0  14481-4 0  9997,2 55955  70.0024 330.1440 0002815 267.5440  92.5396 14.98328730 75363,6950.197,96.107,574.018,570.105,0.0
55955.0,STARLINK-5878,PAYLOAD,2024-07-20 14:20:53,14.98326096,0.0002931,70.0025,329.9758,266.8192,93.2632,7.7439e-05,8.31e-06,0.0,0 STARLINK-5878,1 55955U 23037AT  24202.59783931  .00000831  00000-0  77439-4 0  9995,2 55955  70.0025 329.9758 0002931 266.8192  93.2632 14.98326096 75035,6950.205,96.107,574.107,570.033,0.0
55955.0,STARLINK-5878,PAYLOAD,2024-07-20 17:33:09,14.98333756,0.0002726,70.0025,329.6392,263.0216,97.0633,4.855e-05,4.86e-06,0.0,0 STARLINK-5878,1 55955U 23037AT  24202.73135470  .00000486  00000-0  48550-4 0  9998,2 55955  70.0025 329.6392 0002726 263.0216  97.0633 14.98333756 75050,6950.181,96.107,573.941,570.152,0.0
55955.0,STARLINK-5878,PAYLOAD,2024-07-21 12:46:46,14.98325374,0.0002585,70.0024,327.6188,262.6916,97.3949,-8.8698e-05,-1.151e-05,0.0,0 STARLINK-5878,1 55955U 23037AT  24203.53248288 -.00001151  00000-0 -88698-4 0  9998,2 55955  70.0024 327.6188 0002585 262.6916  97.3949 14.98325374 75516,6950.207,96.107,573.869,570.276,0.0
55955.0,STARLINK-5878,PAYLOAD,2024-07-21 14:22:54,14.98322959,0.0002861,70.0026,327.4505,267.7018,92.3813,-7.2155e-05,-9.54e-06,0.0,0 STARLINK-5878,1 55955U 23037AT  24203.59924405 -.00000954  00000-0 -72155-4 0  9997,2 55955  70.0026 327.4505 0002861 267.7018  92.3813 14.98322959 75189,6950.215,96.107,574.068,570.091,0.0
55955.0,STARLINK-5878,PAYLOAD,2024-07-21 15:59:02,14.98324111,0.0002536,70.0025,327.2821,259.5959,100.4914,-8.7249e-05,-1.134e-05,0.0,0 STARLINK-5878,1 55955U 23037AT  24203.66600392 -.00001134  00000-0 -87249-4 0  9992,2 55955  70.0025 327.2821 0002536 259.5959 100.4914 14.98324111 75195,6950.211,96.107,573.839,570.314,0.0
55955.0,STARLINK-5878,PAYLOAD,2024-07-22 09:36:30,14.98331448,0.0002573,70.0023,325.431,263.9765,96.1101,2.0495e-05,1.52e-06,0.0,0 STARLINK-5878,1 55955U 23037AT  24204.40035627  .00000152  00000-0  20495-4 0  9995,2 55955  70.0023 325.4310 0002573 263.9765  96.1101 14.98331448 75641,6950.188,96.107,573.842,570.265,0.0
55955.0,STARLINK-5878,PAYLOAD,2024-07-23 09:38:32,14.9831659,0.0002851,70.0017,322.906,264.1256,95.9578,7.2482e-06,-6e-08,0.0,0 STARLINK-5878,1 55955U 23037AT  24205.40176886 -.00000006  00000-0  72482-5 0  9992,2 55955  70.0017 322.9060 0002851 264.1256  95.9578 14.98316590 75797,6950.234,96.108,574.081,570.118,0.0
55955.0,STARLINK-5878,PAYLOAD,2024-07-23 14:26:57,14.98315185,0.0003185,70.0007,322.3988,270.9439,89.1355,-6.9797e-05,-9.25e-06,0.0,0 STARLINK-5878,1 55955U 23037AT  24205.60205375 -.00000925  00000-0 -69797-4 0  9995,2 55955  70.0007 322.3988 0003185 270.9439  89.1355 14.98315185 75481,6950.239,96.108,574.317,569.89,0.0
55955.0,STARLINK-5878,PAYLOAD,2024-07-24 09:40:33,14.98332912,0.0003154,70.0002,320.3757,274.3059,85.774,3.2145e-07,-8.9e-07,0.0,0 STARLINK-5878,1 55955U 23037AT  24206.40316403 -.00000089  00000-0  32145-6 0  9998,2 55955  70.0002 320.3757 0003154 274.3059  85.7740 14.98332912 75948,6950.184,96.107,574.241,569.857,0.0
55955.0,STARLINK-5878,PAYLOAD,2024-07-24 17:41:13,14.98335763,0.0002371,70.0035,319.5369,264.1313,95.9576,5.8328e-05,6.03e-06,0.0,0 STARLINK-5878,1 55955U 23037AT  24206.73695950  .00000603  00000-0  58328-4 0  9991,2 55955  70.0035 319.5369 0002371 264.1313  95.9576 14.98335763 75658,6950.175,96.107,573.688,570.392,0.0
55955.0,STARLINK-5878,PAYLOAD,2024-07-25 06:30:17,14.98315944,0.000224,70.0027,318.1891,268.2311,91.8592,0.00047483,5.575e-05,0.0,0 STARLINK-5878,1 55955U 23037AT  24207.27103698  .00005575  00000-0  47483-3 0  9996,2 55955  70.0027 318.1891 0002240 268.2311  91.8592 14.98315944 75733,6950.236,96.108,573.658,570.545,0.0
55955.0,STARLINK-5878,PAYLOAD,2024-07-25 17:43:14,14.98331028,0.0002615,70.0021,317.0129,269.5958,90.4901,0.00014471,1.634e-05,0.0,0 STARLINK-5878,1 55955U 23037AT  24207.73835801  .00001634  00000-0  14471-3 0  9998,2 55955  70.0021 317.0129 0002615 269.5958  90.4901 14.98331028 76142,6950.19,96.107,573.872,570.237,0.0
55955.0,STARLINK-5878,PAYLOAD,2024-07-26 09:44:34,14.98341043,0.0002792,70.0012,315.3304,267.5353,92.5486,-6.4475e-05,-8.62e-06,0.0,0 STARLINK-5878,1 55955U 23037AT  24208.40595474 -.00000862  00000-0 -64475-4 0  9996,2 55955  70.0012 315.3304 0002792 267.5353  92.5486 14.98341043 75903,6950.159,96.106,573.964,570.083,0.0
55955.0,STARLINK-5878,PAYLOAD,2024-07-26 17:45:14,14.98344704,0.0002685,70.0014,314.4887,269.1234,90.9617,-1.0021e-05,-2.13e-06,0.0,0 STARLINK-5878,1 55955U 23037AT  24208.73974817 -.00000213  00000-0 -10021-4 0  9992,2 55955  70.0014 314.4887 0002685 269.1234  90.9617 14.98344704 76296,6950.147,96.106,573.879,570.146,0.0
55955.0,STARLINK-5878,PAYLOAD,2024-07-27 09:46:35,14.98331757,0.0002888,69.9989,312.8024,257.8444,102.2392,-0.00014402,-1.811e-05,0.0,0 STARLINK-5878,1 55955U 23037AT  24209.40735665 -.00001811  00000-0 -14402-3 0  9994,2 55955  69.9989 312.8024 0002888 257.8444 102.2392 14.98331757 76393,6950.187,96.107,574.06,570.045,0.0
55955.0,STARLINK-5878,PAYLOAD,2024-07-27 17:47:16,14.98323307,0.0002943,69.999,311.9607,261.2162,98.8664,-0.00021848,-2.698e-05,0.0,0 STARLINK-5878,1 55955U 23037AT  24209.74116467 -.00002698  00000-0 -21848-3 0  9990,2 55955  69.9990 311.9607 0002943 261.2162  98.8664 14.98323307 76103,6950.214,96.107,574.124,570.033,0.0
55955.0,STARLINK-5878,PAYLOAD,2024-07-28 13:00:52,14.98333516,0.0002912,70.0004,309.9437,255.9491,104.1344,6.19e-05,6.46e-06,0.0,0 STARLINK-5878,1 55955U 23037AT  24210.54226951  .00000646  00000-0  61900-4 0  9993,2 55955  70.0004 309.9437 0002912 255.9491 104.1344 14.98333516 76560,6950.182,96.107,574.071,570.023,0.0
55955.0,STARLINK-5878,PAYLOAD,2024-07-28 16:13:08,14.9833498,0.0002687,70.0004,309.6072,253.2202,106.8662,0.00010773,1.193e-05,0.0,0 STARLINK-5878,1 55955U 23037AT  24210.67578727  .00001193  00000-0  10773-3 0  9997,2 55955  70.0004 309.6072 0002687 253.2202 106.8662 14.98334980 76245,6950.177,96.107,573.91,570.175,0.0
55955.0,STARLINK-5878,PAYLOAD,2024-07-29 13:02:53,14.98327607,0.0003028,70.0003,307.4197,261.3015,98.7801,8.7726e-05,9.54e-06,0.0,0 STARLINK-5878,1 55955U 23037AT  24211.54367138  .00000954  00000-0  87726-4 0  9993,2 55955  70.0003 307.4197 0003028 261.3015  98.7801 14.98327607 76714,6950.2,96.107,574.17,569.961,0.0
55955.0,STARLINK-5878,PAYLOAD,2024-07-30 13:04:53,14.98335579,0.0003208,69.9998,304.8945,266.8342,93.245,-3.4708e-05,-5.07e-06,0.0,0 STARLINK-5878,1 55955U 23037AT  24212.54506927 -.00000507  00000-0 -34708-4 0  9993,2 55955  69.9998 304.8945 0003208 266.8342  93.2450 14.98335579 76862,6950.176,96.107,574.27,569.811,0.0
55955.0,STARLINK-5878,PAYLOAD,2024-07-30 16:17:09,14.9833981,0.0003113,69.9996,304.5576,265.44,94.6403,-9.4371e-05,-1.219e-05,0.0,0 STARLINK-5878,1 55955U 23037AT  24212.67858764 -.00001219  00000-0 -94371-4 0  9999,2 55955  69.9996 304.5576 0003113 265.4400  94.6403 14.98339810 76542,6950.163,96.106,574.191,569.864,0.0
55955.0,STARLINK-5878,PAYLOAD,2024-07-31 13:06:55,14.98324385,0.0002865,70.0012,302.371,265.0737,95.0094,-9.1137e-05,-1.18e-05,0.0,0 STARLINK-5878,1 55955U 23037AT  24213.54647910 -.00001180  00000-0 -91137-4 0  9999,2 55955  70.0012 302.3710 0002865 265.0737  95.0094 14.98324385 77017,6950.21,96.107,574.066,570.084,0.0
55955.0,STARLINK-5878,PAYLOAD,2024-07-31 14:43:03,14.9832466,0.0002898,70.001,302.2021,266.0427,94.04,-8.6886e-05,-1.129e-05,0.0,0 STARLINK-5878,1 55955U 23037AT  24213.61323903 -.00001129  00000-0 -86886-4 0  9998,2 55955  70.0010 302.2021 0002898 266.0427  94.0400 14.98324660 76680,6950.209,96.107,574.089,570.06,0.0
55955.0,STARLINK-5878,PAYLOAD,2024-07-31 22:43:43,14.98335287,0.0003634,70.001,301.36,268.9548,91.1194,-0.00011163,-1.425e-05,0.0,0 STARLINK-5878,1 55955U 23037AT  24213.94703238 -.00001425  00000-0 -11163-3 0  9991,2 55955  70.0010 301.3600 0003634 268.9548  91.1194 14.98335287 76738,6950.177,96.107,574.567,569.516,0.0
